[{"OBJECT_NAME":"STARLINK-1623","OBJECT_ID":"2020-057N","EPOCH":"2026-03-09T21:27:36.782208","MEAN_MOTION":15.52539688,"ECCENTRICITY":0.00071266,"INCLINATION":53.0504,"RA_OF_ASC_NODE":254.9883,"ARG_OF_PERICENTER":167.5624,"MEAN_ANOMALY":192.5562,"EPHEMERIS_TYPE":0,"CLASSIFICATION_TYPE":"U","NORAD_CAT_ID":46129,"ELEMENT_SET_NO":999,"REV_AT_EPOCH":30695,"BSTAR":0.0020334212,"MEAN_MOTION_DOT":0.00128626,"MEAN_MOTION_DDOT":0},{"OBJECT_NAME":"JILIN-1 GAOFEN 03D09","OBJECT_ID":"2022-098B","EPOCH":"2026-03-09T22:57:40.546656","MEAN_MOTION":15.55250114,"ECCENTRICITY":0.00025765,"INCLINATION":97.5458,"RA_OF_ASC_NODE":192.2234,"ARG_OF_PERICENTER":20.0829,"MEAN_ANOMALY":340.0526,"EPHEMERIS_TYPE":0,"CLASSIFICATION_TYPE":"U","NORAD_CAT_ID":53445,"ELEMENT_SET_NO":999,"REV_AT_EPOCH":19915,"BSTAR":0.00083701558,"MEAN_MOTION_DOT":0.00056849,"MEAN_MOTION_DDOT":0}]
